STARLINK-36811          
1 67808U 26032M   26073.48986238  .00165258  00000+0  10860-2 0  9991
2 67808  97.2840 260.2841 0001619  39.5522 320.5861 15.75223248  5545
STARLINK-36795          
1 67809U 26032N   26073.76090599  .00393013  00000+0  24983-2 0  9992
2 67809  97.2836 260.5261 0002268  88.5716 271.5809 15.75357069  5580
STARLINK-36807          
1 67810U 26032P   26073.49092017  .00140638  00000+0  92746-3 0  9997
2 67810  97.2843 260.2811 0001326  86.9700 273.1717 15.75211520  5540
STARLINK-36733          
1 67811U 26032Q   26073.48139080  .00167655  00000+0  11015-2 0  9996
2 67811  97.2833 260.2935 0001233  76.1685 283.9718 15.75220086  5544
STARLINK-36377          
1 67812U 26032R   26073.92361778  .00362889  00000+0  23178-2 0  9996
2 67812  97.2834 260.7640 0001945  34.4646 325.6745 15.75330496  5617
STARLINK-36732          
1 67813U 26032S   26073.48386245  .00228934  00000+0  14919-2 0  9999
2 67813  97.2837 260.2895 0000243  10.8364 349.2907 15.75236411  5549
STARLINK-36767          
1 67814U 26032T   26073.75773524  .00307352  00000+0  19797-2 0  9991
2 67814  97.2836 260.5286 0002346 100.1652 259.9879 15.75288916  5581
STARLINK-36797          
1 67815U 26032U   26073.49480071  .00169854  00000+0  11141-2 0  9993
2 67815  97.2840 260.2756 0001629  74.4129 285.7316 15.75252331  5542
STARLINK-36343          
1 67816U 26032V   26073.91972227  .00373493  00000+0  23815-2 0  9997
2 67816  97.2832 260.7676 0002346 297.6967  62.4060 15.75340519  5616
STARLINK-36756          
1 67817U 26032W   26073.48598153  .00150920  00000+0  99388-3 0  9999
2 67817  97.2835 260.2862 0001732  90.4406 269.7058 15.75214043  5539
STARLINK-36346          
1 67818U 26032X   26073.47080647  .00497346  00000+0  31184-2 0  9998
2 67818  97.2836 260.3077 0001831 121.4599 238.6846 15.75386678  5543
STARLINK-36788          
1 67819U 26032Y   26073.49691936  .00157531  00000+0  10352-2 0  9993
2 67819  97.2839 260.2715 0001673  65.2164 294.9275 15.75245403  5543
